STARLINK-3193           
1 49754U 21115AG  26068.41478290 -.00000585  00000+0 -18685-4 0  9997
2 49754  53.2170 140.4580 0001196 100.8039 259.3088 15.08833512235639
YAM-8                   
1 63254U 25052AW  26068.73092778  .00007810  00000+0  47267-3 0  9993
2 63254  97.7023 329.5345 0002369 152.6796 207.4558 15.10898938 54245
