[{"OBJECT_NAME":"STARLINK-3193","OBJECT_ID":"2021-115AG","EPOCH":"2026-03-09T09:57:17.242560","MEAN_MOTION":15.08833512,"ECCENTRICITY":0.00011964,"INCLINATION":53.217,"RA_OF_ASC_NODE":140.458,"ARG_OF_PERICENTER":100.8039,"MEAN_ANOMALY":259.3088,"EPHEMERIS_TYPE":0,"CLASSIFICATION_TYPE":"U","NORAD_CAT_ID":49754,"ELEMENT_SET_NO":999,"REV_AT_EPOCH":23563,"BSTAR":-1.8684525e-5,"MEAN_MOTION_DOT":-5.85e-6,"MEAN_MOTION_DDOT":0},{"OBJECT_NAME":"YAM-8","OBJECT_ID":"2025-052AW","EPOCH":"2026-03-09T17:32:32.161056","MEAN_MOTION":15.10898939,"ECCENTRICITY":0.00023693,"INCLINATION":97.7023,"RA_OF_ASC_NODE":329.5345,"ARG_OF_PERICENTER":152.6796,"MEAN_ANOMALY":207.4558,"EPHEMERIS_TYPE":0,"CLASSIFICATION_TYPE":"U","NORAD_CAT_ID":63254,"ELEMENT_SET_NO":999,"REV_AT_EPOCH":5424,"BSTAR":0.00047267461,"MEAN_MOTION_DOT":7.81e-5,"MEAN_MOTION_DDOT":0}]
